NORAD_CAT_ID,OBJECT_NAME,OBJECT_TYPE,EPOCH,MEAN_MOTION,ECCENTRICITY,INCLINATION,RA_OF_ASC_NODE,ARG_OF_PERICENTER,MEAN_ANOMALY,BSTAR,MEAN_MOTION_DOT,MEAN_MOTION_DDOT,TLE_LINE0,TLE_LINE1,TLE_LINE2,SEMIMAJOR_AXIS,PERIOD,APOGEE,PERIGEE,DECAYED
52497.0,STARLINK-3884,PAYLOAD,2024-01-02 10:03:06,15.08842758,0.0001599,53.218,28.2078,96.0053,264.1122,8.3832e-05,1.047e-05,0.0,0 STARLINK-3884,1 52497U 22049AY  24002.41882200  .00001047  00000-0  83832-4 0  9997,2 52497  53.2180  28.2078 0001599  96.0053 264.1122 15.08842758 92032,6917.872,95.437,540.843,538.631,0.0
52497.0,STARLINK-3884,PAYLOAD,2024-01-03 06:43:07,15.08837282,0.0001759,53.2189,24.3443,105.0409,255.0778,-2.5792e-05,-6.99e-06,0.0,0 STARLINK-3884,1 52497U 22049AY  24003.27994913 -.00000699  00000-0 -25792-4 0  9992,2 52497  53.2189  24.3443 0001759 105.0409 255.0778 15.08837282 92322,6917.889,95.438,540.971,538.537,0.0
52497.0,STARLINK-3884,PAYLOAD,2024-01-04 04:58:31,15.08836917,0.0001753,53.2191,20.1828,105.144,254.9747,1.2749e-05,-8.5e-07,0.0,0 STARLINK-3884,1 52497U 22049AY  24004.20731060 -.00000085  00000-0  12749-4 0  9994,2 52497  53.2191  20.1828 0001753 105.1440 254.9747 15.08836917 92302,6917.89,95.438,540.968,538.542,0.0
52497.0,STARLINK-3884,PAYLOAD,2024-01-04 06:33:54,15.08837338,0.0001755,53.2189,19.8852,105.6439,254.4747,1.5109e-05,-4.8e-07,0.0,0 STARLINK-3884,1 52497U 22049AY  24004.27355021 -.00000048  00000-0  15109-4 0  9992,2 52497  53.2189  19.8852 0001755 105.6439 254.4747 15.08837338 92310,6917.889,95.438,540.968,538.539,0.0
52497.0,STARLINK-3884,PAYLOAD,2024-01-05 04:49:18,15.08834238,0.0001635,53.2181,15.7201,102.8813,257.2362,5.3936e-05,5.7e-06,0.0,0 STARLINK-3884,1 52497U 22049AY  24005.20091379  .00000570  00000-0  53936-4 0  9998,2 52497  53.2181  15.7201 0001635 102.8813 257.2362 15.08834238 92610,6917.898,95.438,540.894,538.632,0.0
52497.0,STARLINK-3884,PAYLOAD,2024-01-05 09:35:28,15.08838142,0.000159,53.2183,14.8259,97.3155,262.8018,8.2111e-05,1.019e-05,0.0,0 STARLINK-3884,1 52497U 22049AY  24005.39963144  .00001019  00000-0  82111-4 0  9992,2 52497  53.2183  14.8259 0001590  97.3155 262.8018 15.08838142 92485,6917.886,95.438,540.851,538.651,0.0
52497.0,STARLINK-3884,PAYLOAD,2024-01-06 07:50:51,15.08845414,0.0001551,53.218,10.6621,98.1877,261.9291,9.4846e-05,1.222e-05,0.0,0 STARLINK-3884,1 52497U 22049AY  24006.32698767  .00001222  00000-0  94846-4 0  9996,2 52497  53.2180  10.6621 0001551  98.1877 261.9291 15.08845414 92782,6917.864,95.437,540.802,538.656,0.0
52497.0,STARLINK-3884,PAYLOAD,2024-01-07 06:06:15,15.08842986,0.0001525,53.2175,6.5017,80.6858,279.4306,7.6293e-05,9.27e-06,0.0,0 STARLINK-3884,1 52497U 22049AY  24007.25435049  .00000927  00000-0  76293-4 0  9998,2 52497  53.2175   6.5017 0001525  80.6858 279.4306 15.08842986 92923,6917.871,95.437,540.791,538.681,0.0
52497.0,STARLINK-3884,PAYLOAD,2024-01-08 09:07:48,15.08843326,0.0001476,53.2173,1.4454,101.3139,258.8019,7.0581e-05,8.36e-06,0.0,0 STARLINK-3884,1 52497U 22049AY  24008.38042824  .00000836  00000-0  70581-4 0  9991,2 52497  53.2173   1.4454 0001476 101.3139 258.8019 15.08843326 93098,6917.87,95.437,540.756,538.714,0.0
52497.0,STARLINK-3884,PAYLOAD,2024-01-09 05:47:49,15.08845141,0.0001516,53.2184,357.5783,108.1387,251.977,1.7995e-05,-2e-08,0.0,0 STARLINK-3884,1 52497U 22049AY  24009.24154784 -.00000002  00000-0  17995-4 0  9992,2 52497  53.2184 357.5783 0001516 108.1387 251.9770 15.08845141 93067,6917.865,95.437,540.778,538.681,0.0
52497.0,STARLINK-3884,PAYLOAD,2024-01-10 04:03:13,15.08840323,0.0001602,53.2184,353.4155,103.4597,256.6573,3.0552e-05,1.98e-06,0.0,0 STARLINK-3884,1 52497U 22049AY  24010.16891191  .00000198  00000-0  30552-4 0  9994,2 52497  53.2184 353.4155 0001602 103.4597 256.6573 15.08840323 93365,6917.879,95.438,540.853,538.636,0.0
52497.0,STARLINK-3884,PAYLOAD,2024-01-10 08:49:23,15.08841551,0.0001598,53.2183,352.5231,104.062,256.055,3.8646e-05,3.27e-06,0.0,0 STARLINK-3884,1 52497U 22049AY  24010.36763076  .00000327  00000-0  38646-4 0  9992,2 52497  53.2183 352.5231 0001598 104.0620 256.0550 15.08841551 93236,6917.876,95.437,540.846,538.635,0.0
52497.0,STARLINK-3884,PAYLOAD,2024-01-11 03:54:01,15.08835645,0.0001694,53.2191,348.9535,106.4865,253.6313,3.044e-05,1.96e-06,0.0,0 STARLINK-3884,1 52497U 22049AY  24011.16251658  .00000196  00000-0  30440-4 0  9997,2 52497  53.2191 348.9535 0001694 106.4865 253.6313 15.08835645 93513,6917.894,95.438,540.931,538.587,0.0
52497.0,STARLINK-3884,PAYLOAD,2024-01-11 08:40:11,15.08781583,0.0002055,53.2194,348.0604,106.711,253.4108,0.00084124,0.00013104,0.0,0 STARLINK-3884,1 52497U 22049AY  24011.36124841  .00013104  00000-0  84124-3 0  9992,2 52497  53.2194 348.0604 0002055 106.7110 253.4108 15.08781583 93546,6918.059,95.441,541.346,538.502,0.0
52497.0,STARLINK-3884,PAYLOAD,2024-01-12 03:44:48,15.08838087,0.0001782,53.2193,344.4919,113.3506,246.7674,3.6229e-05,2.89e-06,0.0,0 STARLINK-3884,1 52497U 22049AY  24012.15611666  .00000289  00000-0  36229-4 0  9990,2 52497  53.2193 344.4919 0001782 113.3506 246.7674 15.08838087 93661,6917.886,95.438,540.984,538.518,0.0
52497.0,STARLINK-3884,PAYLOAD,2024-01-13 06:46:21,15.08847075,0.0001484,53.2183,339.4358,101.9938,258.122,0.00011557,1.552e-05,0.0,0 STARLINK-3884,1 52497U 22049AY  24013.28219251  .00001552  00000-0  11557-3 0  9999,2 52497  53.2183 339.4358 0001484 101.9938 258.1220 15.08847075 93832,6917.859,95.437,540.75,538.697,0.0
52497.0,STARLINK-3884,PAYLOAD,2024-01-14 01:50:59,15.0883891,0.0001343,53.2182,335.8724,100.8043,259.3101,0.0001245,1.694e-05,0.0,0 STARLINK-3884,1 52497U 22049AY  24014.07708085  .00001694  00000-0  12450-3 0  9995,2 52497  53.2182 335.8724 0001343 100.8043 259.3101 15.08838910 93959,6917.884,95.438,540.678,538.82,0.0
52497.0,STARLINK-3884,PAYLOAD,2024-01-14 06:37:08,15.08848151,0.0001505,53.2176,334.9789,104.6494,255.4665,0.0001889,2.72e-05,0.0,0 STARLINK-3884,1 52497U 22049AY  24014.27579396  .00002720  00000-0  18890-3 0  9993,2 52497  53.2176 334.9789 0001505 104.6494 255.4665 15.08848151 93988,6917.855,95.437,540.762,538.679,0.0
52497.0,STARLINK-3884,PAYLOAD,2024-01-14 20:55:37,15.08844438,0.0001534,53.2186,332.3003,97.9513,262.1653,5.1405e-05,5.3e-06,0.0,0 STARLINK-3884,1 52497U 22049AY  24014.87196120  .00000530  00000-0  51405-4 0  9996,2 52497  53.2186 332.3003 0001534  97.9513 262.1653 15.08844438 93917,6917.867,95.437,540.793,538.671,0.0
52497.0,STARLINK-3884,PAYLOAD,2024-01-15 03:17:09,15.08857776,0.0001551,53.2173,331.1131,88.7968,271.3202,0.00027426,4.082e-05,0.0,0 STARLINK-3884,1 52497U 22049AY  24015.13691237  .00004082  00000-0  27426-3 0  9996,2 52497  53.2173 331.1131 0001551  88.7968 271.3202 15.08857776 93958,6917.826,95.436,540.764,538.618,0.0
52497.0,STARLINK-3884,PAYLOAD,2024-01-15 23:57:10,15.08841333,0.0001689,53.2169,327.2477,101.9809,258.1372,-2.0737e-05,-6.18e-06,0.0,0 STARLINK-3884,1 52497U 22049AY  24015.99804011 -.00000618  00000-0 -20737-4 0  9998,2 52497  53.2169 327.2477 0001689 101.9809 258.1372 15.08841333 94242,6917.876,95.437,540.91,538.573,0.0
52497.0,STARLINK-3884,PAYLOAD,2024-01-16 06:18:43,15.08846146,0.0001722,53.2167,326.0584,105.62,254.4982,7.9262e-05,9.74e-06,0.0,0 STARLINK-3884,1 52497U 22049AY  24016.26299937  .00000974  00000-0  79262-4 0  9994,2 52497  53.2167 326.0584 0001722 105.6200 254.4982 15.08846146 94120,6917.862,95.437,540.918,538.535,0.0
52497.0,STARLINK-3884,PAYLOAD,2024-01-17 01:23:20,15.0884579,0.0001664,53.2175,322.4932,91.0339,269.0844,-1.1954e-05,-4.78e-06,0.0,0 STARLINK-3884,1 52497U 22049AY  24017.05787791 -.00000478  00000-0 -11954-4 0  9997,2 52497  53.2175 322.4932 0001664  91.0339 269.0844 15.08845790 94406,6917.863,95.437,540.879,538.577,0.0
52497.0,STARLINK-3884,PAYLOAD,2024-01-18 02:49:31,15.08835735,0.0001417,53.2181,317.7345,90.3231,269.7924,0.00012768,1.744e-05,0.0,0 STARLINK-3884,1 52497U 22049AY  24018.11772491  .00001744  00000-0  12768-3 0  9994,2 52497  53.2181 317.7345 0001417  90.3231 269.7924 15.08835735 94568,6917.893,95.438,540.739,538.778,0.0
52497.0,STARLINK-3884,PAYLOAD,2024-01-18 20:18:46,15.08838422,0.0001429,53.2176,314.4642,98.2228,261.8927,1.6003e-05,-3.3e-07,0.0,0 STARLINK-3884,1 52497U 22049AY  24018.84636975 -.00000033  00000-0  16003-4 0  9998,2 52497  53.2176 314.4642 0001429  98.2228 261.8927 15.08838422 94519,6917.885,95.438,540.739,538.762,0.0
52497.0,STARLINK-3884,PAYLOAD,2024-01-19 01:04:54,15.08848175,0.0001395,53.2178,313.5728,102.8282,257.2866,0.00010075,1.316e-05,0.0,0 STARLINK-3884,1 52497U 22049AY  24019.04508044  .00001316  00000-0  10075-3 0  9992,2 52497  53.2178 313.5728 0001395 102.8282 257.2866 15.08848175 94708,6917.855,95.437,540.685,538.755,0.0
52497.0,STARLINK-3884,PAYLOAD,2024-01-19 04:15:40,15.08855106,0.0001465,53.2179,312.9771,107.1804,252.9349,0.0001367,1.889e-05,0.0,0 STARLINK-3884,1 52497U 22049AY  24019.17755463  .00001889  00000-0  13670-3 0  9994,2 52497  53.2179 312.9771 0001465 107.1804 252.9349 15.08855106 94728,6917.834,95.437,540.713,538.686,0.0
52497.0,STARLINK-3884,PAYLOAD,2024-01-19 20:09:33,15.08840393,0.0001576,53.2177,310.0025,86.752,273.3653,5.6805e-05,6.16e-06,0.0,0 STARLINK-3884,1 52497U 22049AY  24019.83996564  .00000616  00000-0  56805-4 0  9991,2 52497  53.2177 310.0025 0001576  86.7520 273.3653 15.08840393 94825,6917.879,95.438,540.834,538.654,0.0
52497.0,STARLINK-3884,PAYLOAD,2024-01-19 21:44:56,15.08839322,0.0001433,53.2178,309.7036,84.5014,275.6141,4.0066e-05,3.5e-06,0.0,0 STARLINK-3884,1 52497U 22049AY  24019.90620569  .00000350  00000-0  40066-4 0  9995,2 52497  53.2178 309.7036 0001433  84.5014 275.6141 15.08839322 94679,6917.882,95.438,540.739,538.756,0.0
52497.0,STARLINK-3884,PAYLOAD,2024-01-20 04:06:28,15.08846141,0.0001511,53.2176,308.5146,79.1571,280.9591,0.00013914,1.927e-05,0.0,0 STARLINK-3884,1 52497U 22049AY  24020.17116264  .00001927  00000-0  13914-3 0  9990,2 52497  53.2176 308.5146 0001511  79.1571 280.9591 15.08846141 94711,6917.862,95.437,540.772,538.681,0.0
